{
  "links" : {
    "next" : "https://api.nasa.gov/neo/rest/v1/feed?start_date=2015-02-16&end_date=2015-02-16&detailed=true&api_key=t0TVs3DtDT2H8Oy2Zy8m2eVrNsAVKAexjcZXUckd",
    "prev" : "https://api.nasa.gov/neo/rest/v1/feed?start_date=2015-02-14&end_date=2015-02-14&detailed=true&api_key=t0TVs3DtDT2H8Oy2Zy8m2eVrNsAVKAexjcZXUckd",
    "self" : "https://api.nasa.gov/neo/rest/v1/feed?start_date=2015-02-15&end_date=2015-02-15&detailed=true&api_key=t0TVs3DtDT2H8Oy2Zy8m2eVrNsAVKAexjcZXUckd"
  },
  "element_count" : 16,
  "near_earth_objects" : {
    "2015-02-15" : [ {
      "links" : {
        "self" : "https://api.nasa.gov/neo/rest/v1/neo/3703537?api_key=t0TVs3DtDT2H8Oy2Zy8m2eVrNsAVKAexjcZXUckd"
      },
      "neo_reference_id" : "3703537",
      "name" : "(2015 AZ43)",
      "nasa_jpl_url" : "http://ssd.jpl.nasa.gov/sbdb.cgi?sstr=3703537",
      "absolute_magnitude_h" : 23.5,
      "estimated_diameter" : {
        "kilometers" : {
          "estimated_diameter_min" : 0.0530340723,
          "estimated_diameter_max" : 0.1185877909
        },
        "meters" : {
          "estimated_diameter_min" : 53.0340723319,
          "estimated_diameter_max" : 118.5877908577
        },
        "miles" : {
          "estimated_diameter_min" : 0.0329538346,
          "estimated_diameter_max" : 0.0736870142
        },
        "feet" : {
          "estimated_diameter_min" : 173.9963058693,
          "estimated_diameter_max" : 389.0675677576
        }
      },
      "is_potentially_hazardous_asteroid" : false,
      "close_approach_data" : [ {
        "close_approach_date" : "2015-02-15",
        "epoch_date_close_approach" : 1423987200000,
        "relative_velocity" : {
          "kilometers_per_second" : "7.216293045",
          "kilometers_per_hour" : "25978.6549618333",
          "miles_per_hour" : "16142.1259122569"
        },
        "miss_distance" : {
          "astronomical" : "0.0197346502",
          "lunar" : "7.6767792702",
          "kilometers" : "2952261.75",
          "miles" : "1834450.375"
        },
        "orbiting_body" : "Earth"
      } ],
      "orbital_data" : {
        "orbit_id" : "34",
        "orbit_determination_date" : "2017-04-06 08:36:28",
        "orbit_uncertainty" : "5",
        "minimum_orbit_intersection" : "5.25386E-5",
        "jupiter_tisserand_invariant" : "3.833",
        "epoch_osculation" : "2458000.5",
        "eccentricity" : ".472227341181277",
        "semi_major_axis" : "1.872920527155904",
        "inclination" : "4.520952852344816",
        "ascending_node_longitude" : "337.4232966901617",
        "orbital_period" : "936.2190011701654",
        "perihelion_distance" : ".9884762463732361",
        "perihelion_argument" : "181.8179535860752",
        "aphelion_distance" : "2.757364807938573",
        "perihelion_time" : "2458015.606334655229",
        "mean_anomaly" : "354.1912303968568",
        "mean_motion" : ".3845254150471649",
        "equinox" : "J2000"
      }
    }, {
      "links" : {
        "self" : "https://api.nasa.gov/neo/rest/v1/neo/3709959?api_key=t0TVs3DtDT2H8Oy2Zy8m2eVrNsAVKAexjcZXUckd"
      },
      "neo_reference_id" : "3709959",
      "name" : "(2015 CZ)",
      "nasa_jpl_url" : "http://ssd.jpl.nasa.gov/sbdb.cgi?sstr=3709959",
      "absolute_magnitude_h" : 22.3,
      "estimated_diameter" : {
        "kilometers" : {
          "estimated_diameter_min" : 0.0921626549,
          "estimated_diameter_max" : 0.2060819612
        },
        "meters" : {
          "estimated_diameter_min" : 92.1626548503,
          "estimated_diameter_max" : 206.0819612321
        },
        "miles" : {
          "estimated_diameter_min" : 0.057267201,
          "estimated_diameter_max" : 0.1280533543
        },
        "feet" : {
          "estimated_diameter_min" : 302.370924539,
          "estimated_diameter_max" : 676.1219416887
        }
      },
      "is_potentially_hazardous_asteroid" : false,
      "close_approach_data" : [ {
        "close_approach_date" : "2015-02-15",
        "epoch_date_close_approach" : 1423987200000,
        "relative_velocity" : {
          "kilometers_per_second" : "10.4262104414",
          "kilometers_per_hour" : "37534.3575890598",
          "miles_per_hour" : "23322.39013638"
        },
        "miss_distance" : {
          "astronomical" : "0.3698740049",
          "lunar" : "143.8809814453",
          "kilometers" : "55332364",
          "miles" : "34381936"
        },
        "orbiting_body" : "Earth"
      } ],
      "orbital_data" : {
        "orbit_id" : "17",
        "orbit_determination_date" : "2017-04-06 08:35:47",
        "orbit_uncertainty" : "3",
        "minimum_orbit_intersection" : ".137791",
        "jupiter_tisserand_invariant" : "5.871",
        "epoch_osculation" : "2458000.5",
        "eccentricity" : ".3540463905690037",
        "semi_major_axis" : "1.029551873208184",
        "inclination" : "10.74696986412275",
        "ascending_node_longitude" : "144.5808340673696",
        "orbital_period" : "381.5669727997438",
        "perihelion_distance" : ".6650427485952697",
        "perihelion_argument" : "155.7789660065528",
        "aphelion_distance" : "1.394060997821098",
        "perihelion_time" : "2457980.113388727727",
        "mean_anomaly" : "19.23431685967732",
        "mean_motion" : ".9434778837342855",
        "equinox" : "J2000"
      }
    }, {
      "links" : {
        "self" : "https://api.nasa.gov/neo/rest/v1/neo/3709926?api_key=t0TVs3DtDT2H8Oy2Zy8m2eVrNsAVKAexjcZXUckd"
      },
      "neo_reference_id" : "3709926",
      "name" : "(2015 CS)",
      "nasa_jpl_url" : "http://ssd.jpl.nasa.gov/sbdb.cgi?sstr=3709926",
      "absolute_magnitude_h" : 26.4,
      "estimated_diameter" : {
        "kilometers" : {
          "estimated_diameter_min" : 0.0139493823,
          "estimated_diameter_max" : 0.0311917671
        },
        "meters" : {
          "estimated_diameter_min" : 13.9493822934,
          "estimated_diameter_max" : 31.1917670523
        },
        "miles" : {
          "estimated_diameter_min" : 0.0086677416,
          "estimated_diameter_max" : 0.0193816595
        },
        "feet" : {
          "estimated_diameter_min" : 45.7656914036,
          "estimated_diameter_max" : 102.3351970157
        }
      },
      "is_potentially_hazardous_asteroid" : false,
      "close_approach_data" : [ {
        "close_approach_date" : "2015-02-15",
        "epoch_date_close_approach" : 1423987200000,
        "relative_velocity" : {
          "kilometers_per_second" : "8.5210013203",
          "kilometers_per_hour" : "30675.6047532497",
          "miles_per_hour" : "19060.6278534845"
        },
        "miss_distance" : {
          "astronomical" : "0.008621079",
          "lunar" : "3.3535997868",
          "kilometers" : "1289695",
          "miles" : "801379.375"
        },
        "orbiting_body" : "Earth"
      } ],
      "orbital_data" : {
        "orbit_id" : "11",
        "orbit_determination_date" : "2017-04-06 08:35:48",
        "orbit_uncertainty" : "7",
        "minimum_orbit_intersection" : ".00636289",
        "jupiter_tisserand_invariant" : "3.784",
        "epoch_osculation" : "2458000.5",
        "eccentricity" : ".4958700780611389",
        "semi_major_axis" : "1.902223244458471",
        "inclination" : "2.990383289101625",
        "ascending_node_longitude" : "321.7599698225021",
        "orbital_period" : "958.276092478975",
        "perihelion_distance" : ".9589676557391358",
        "perihelion_argument" : "211.3063505181314",
        "aphelion_distance" : "2.845478833177805",
        "perihelion_time" : "2458048.671407612157",
        "mean_anomaly" : "341.9032250971482",
        "mean_motion" : ".3756746128025714",
        "equinox" : "J2000"
      }
    } ]
  }
}